IRIDIUM 171             
1 43929U 19002H   24090.19535427  .00000422  00000+0  14358-3 0  9991
2 43929  86.4001 331.9038 0002244  82.1232 278.0218 14.34213966273004
IRIDIUM 170             
1 43930U 19002J   24089.94170686  .00001865  00000+0  29199-3 0  9997
2 43930  86.6116 331.8431 0002149  89.9056 270.2407 14.72242468280197
IRIDIUM 167             
1 43931U 19002K   24089.90994202  .00000503  00000+0  17253-3 0  9998
2 43931  86.3991 331.8215 0002140  83.4058 276.7381 14.34218284272963
IRIDIUM 181             
1 56726U 23068S   24089.80889616  .00000971  00000+0  28128-3 0  9994
2 56726  86.8694  21.6976 0003012  66.5591 293.5927 14.43557580 45680
IRIDIUM 177             
1 56727U 23068T   24089.72558762  .00003437  00000+0  44910-3 0  9998
2 56727  86.2023 353.0916 0002403  83.7438 276.4057 14.80203966 46627
IRIDIUM 174             
1 56728U 23068U   24090.19343319  .00002975  00000+0  38776-3 0  9991
2 56728  86.2029 352.9670 0002524  90.7615 269.3896 14.80251444 46691
IRIDIUM 178             
1 56729U 23068V   24089.24159256  .00002804  00000+0  36531-3 0  9999
2 56729  86.5842   7.0804 0002466  95.2475 264.9028 14.80260961 46551
IRIDIUM 179             
1 56730U 23068W   24089.50658395  .00003065  00000+0  40014-3 0  9999
2 56730  86.6867  10.0940 0002863  89.6868 270.4681 14.80207731 46597
